sat00801
1 00801U 64026A   20046.77608811  .00000084  00000-0  38594-4 0  9992
2 00801  90.5094  59.6211 0046584 286.7071  72.9006 14.14611589858881
